
# Worst residual: 113.93 km
# MJD 59948.000000 (2023 Jan  4  0:00)
A10OETG = A10O3K7 = A10KzS9
1 79981U 22999ZZG 23004.49919926  .00000000  00000-0  00000-0 0 18162
2 79981 015.6870 300.8485 7939353 331.6808 208.4575 00.85633429    00

# Worst residual: 100.30 km
# MJD 59949.000000 (2023 Jan  5  0:00)
A10OETG = A10O3K7 = A10KzS9
1 79981U 22999ZZG 23005.49919926  .00000000  00000-0  00000-0 0 18163
2 79981 015.2534 301.6327 7926518 331.9246 156.7167 00.85694605    00

# Worst residual: 323.18 km
# MJD 59950.000000 (2023 Jan  6  0:00)
A10OETG = A10O3K7 = A10KzS9
1 79981U 22999ZZG 23006.49919926  .00000000  00000-0  00000-0 0 18164
2 79981 014.8613 302.2185 7936327 332.2029 105.0693 00.86082106    03

# Worst residual: 236.72 km
# MJD 59951.000000 (2023 Jan  7  0:00)
A10OETG = A10O3K7 = A10KzS9
1 79981U 22999ZZG 23007.49919926  .00000000  00000-0  00000-0 0 18165
2 79981 014.3759 303.0202 7918996 332.2696 053.1583 00.86494600    07

# Worst residual: 243.37 km
# MJD 59952.000000 (2023 Jan  8  0:00)
A10OETG = A10O3K7 = A10KzS9
1 79981U 22999ZZG 23008.49919926  .00000000  00000-0  00000-0 0 18166
2 79981 013.8473 304.0551 7899266 332.2483 000.6634 00.86548478    01

# Worst residual: 263.57 km
# MJD 59953.000000 (2023 Jan  9  0:00)
A10OETG = A10O3K7 = A10KzS9
1 79981U 22999ZZG 23009.49919926  .00000000  00000-0  00000-0 0 18167
2 79981 013.3446 305.2062 7883041 332.0394 308.4605 00.86117995    02

# Worst residual: 181.72 km
# MJD 59954.000000 (2023 Jan 10  0:00)
A10OETG = A10O3K7 = A10KzS9
1 79981U 22999ZZG 23010.49919926  .00000000  00000-0  00000-0 0 18169
2 79981 012.9736 306.1748 7850138 331.9494 256.6759 00.85771821    07

# Worst residual: 108.48 km
# MJD 59955.000000 (2023 Jan 11  0:00)
A10OETG = A10O3K7 = A10KzS9
1 79981U 22999ZZG 23011.49919926  .00000000  00000-0  00000-0 0 18160
2 79981 012.5759 307.1351 7819294 332.0013 204.9277 00.85634857    04

# Worst residual: 135.64 km
# MJD 59956.000000 (2023 Jan 12  0:00)
A10OETG = A10O3K7 = A10KzS9
1 79981U 22999ZZG 23012.49919926  .00000000  00000-0  00000-0 0 18161
2 79981 012.1458 308.0988 7805243 332.0758 153.1858 00.85745693    08

# Worst residual: 305.27 km
# MJD 59957.000000 (2023 Jan 13  0:00)
A10OETG = A10O3K7 = A10KzS9
1 79981U 22999ZZG 23013.49919926  .00000000  00000-0  00000-0 0 18162
2 79981 011.7737 308.8063 7807812 332.2245 101.5867 00.86140621    00

# Worst residual: 215.51 km
# MJD 59958.000000 (2023 Jan 14  0:00)
A10OETG = A10O3K7 = A10KzS9
1 79981U 22999ZZG 23014.49919926  .00000000  00000-0  00000-0 0 18163
2 79981 011.3075 309.8091 7783060 332.1192 049.6221 00.86543307    05

# Worst residual: 267.00 km
# MJD 59959.000000 (2023 Jan 15  0:00)
A10OETG = A10O3K7 = A10KzS9
1 79981U 22999ZZG 23015.49919926  .00000000  00000-0  00000-0 0 18164
2 79981 010.8080 311.1046 7759176 331.8640 357.1248 00.86537449    02

# Worst residual: 283.89 km
# MJD 59960.000000 (2023 Jan 16  0:00)
A10OETG = A10O3K7 = A10KzS9
1 79981U 22999ZZG 23016.49919926  .00000000  00000-0  00000-0 0 18165
2 79981 010.3605 312.4975 7736810 331.4341 304.9222 00.86097616    08

# Worst residual: 166.37 km
# MJD 59961.000000 (2023 Jan 17  0:00)
A10OETG = A10O3K7 = A10KzS9
1 79981U 22999ZZG 23017.49919926  .00000000  00000-0  00000-0 0 18166
2 79981 010.0141 313.7607 7699811 331.0874 253.1851 00.85741882    05

# Worst residual: 102.73 km
# MJD 59962.000000 (2023 Jan 18  0:00)
A10OETG = A10O3K7 = A10KzS9
1 79981U 22999ZZG 23018.49919926  .00000000  00000-0  00000-0 0 18167
2 79981 009.6340 314.9796 7664303 330.9195 201.4187 00.85628468    06

# Worst residual: 173.94 km
# MJD 59963.000000 (2023 Jan 19  0:00)
A10OETG = A10O3K7 = A10KzS9
1 79981U 22999ZZG 23019.49919926  .00000000  00000-0  00000-0 0 18168
2 79981 009.2371 316.1810 7650538 330.7756 149.6548 00.85791686    00

# Worst residual: 279.66 km
# MJD 59964.000000 (2023 Jan 20  0:00)
A10OETG = A10O3K7 = A10KzS9
1 79981U 22999ZZG 23020.49919926  .00000000  00000-0  00000-0 0 18160
2 79981 008.8944 317.1526 7646292 330.6702 098.0482 00.86194223    07

# Worst residual: 215.33 km
# MJD 59965.000000 (2023 Jan 21  0:00)
A10OETG = A10O3K7 = A10KzS9
1 79981U 22999ZZG 23021.49919926  .00000000  00000-0  00000-0 0 18161
2 79981 008.4699 318.4882 7614378 330.2799 045.9738 00.86575264    04

# Worst residual: 274.51 km
# MJD 59966.000000 (2023 Jan 22  0:00)
A10OETG = A10O3K7 = A10KzS9
1 79981U 22999ZZG 23022.49919926  .00000000  00000-0  00000-0 0 18162
2 79981 008.0325 320.2298 7586924 329.6155 353.4417 00.86501087    04

# Worst residual: 282.01 km
# MJD 59967.000000 (2023 Jan 23  0:00)
A10OETG = A10O3K7 = A10KzS9
1 79981U 22999ZZG 23023.49919926  .00000000  00000-0  00000-0 0 18163
2 79981 007.6388 322.0487 7558380 328.7763 301.2627 00.86059403    02

# Worst residual: 153.25 km
# MJD 59968.000000 (2023 Jan 24  0:00)
A10OETG = A10O3K7 = A10KzS9
1 79981U 22999ZZG 23024.49919926  .00000000  00000-0  00000-0 0 18164
2 79981 007.3383 323.6998 7512582 328.0693 249.5401 00.85700722    07

# Worst residual: 104.99 km
# MJD 59969.000000 (2023 Jan 25  0:00)
A10OETG = A10O3K7 = A10KzS9
1 79981U 22999ZZG 23025.49919926  .00000000  00000-0  00000-0 0 18165
2 79981 007.0051 325.4637 7476461 327.4264 197.7525 00.85614881    09

# Worst residual: 213.62 km
# MJD 59970.000000 (2023 Jan 26  0:00)
A10OETG = A10O3K7 = A10KzS9
1 79981U 22999ZZG 23026.49919926  .00000000  00000-0  00000-0 0 18166
2 79981 006.6755 327.0902 7463835 326.9122 145.9750 00.85824951    02

# Worst residual: 311.68 km
# MJD 59971.000000 (2023 Jan 27  0:00)
A10OETG = A10O3K7 = A10KzS9
1 79981U 22999ZZG 23027.49919926  .00000000  00000-0  00000-0 0 18167
2 79981 006.3769 328.4421 7449792 326.4588 094.3823 00.86259159    03

# Worst residual: 227.42 km
# MJD 59972.000000 (2023 Jan 28  0:00)
A10OETG = A10O3K7 = A10KzS9
1 79981U 22999ZZG 23028.49919926  .00000000  00000-0  00000-0 0 18168
2 79981 006.0195 330.3740 7411960 325.5493 042.2260 00.86625541    09

# Worst residual: 281.78 km
# MJD 59973.000000 (2023 Jan 29  0:00)
A10OETG = A10O3K7 = A10KzS9
1 79981U 22999ZZG 23029.49919926  .00000000  00000-0  00000-0 0 18169
2 79981 005.6630 332.7309 7380834 324.3258 349.6715 00.86485916    05
